[
    {
        "Altitude(m)": 604234.5941279222,
        "Argument of Periapsis(deg)": 0.0,
        "Eccentricity": 0.0,
        "Inclination(deg)": 60.0,
        "Latitude(deg)": 14.117149643172072,
        "Longitude(deg)": -128.27265189377178,
        "Mean Anomaly(deg)": 163.63640000000004,
        "RAAN(deg)": 160.0,
        "Satellite Name": "Test1 714",
        "Satellite Number": 714,
        "Semi-Major Axis(m)": 6980739.136638005,
        "Time(s)": 0
    },
    {
        "Altitude(m)": 604223.4231541312,
        "Argument of Periapsis(deg)": 0.00010418945913296404,
        "Eccentricity": 0.0,
        "Inclination(deg)": 60.0,
        "Latitude(deg)": 13.582285589911749,
        "Longitude(deg)": -127.98574363885174,
        "Mean Anomaly(deg)": 164.25650614546183,
        "RAAN(deg)": 159.99957995086024,
        "Satellite Name": "Test1 714",
        "Satellite Number": 714,
        "Semi-Major Axis(m)": 6980739.136638005,
        "Time(s)": 10
    }
]